{"type": "FeatureCollection", "features": [ {"type": "Feature", "properties": {"norad_id": 66580, "name": "STARLINK-35872", "group": "last-30-days", "lat": -5.595400476557793, "lon": -93.6077668225712, "alt_km": 414.953873517361, "timestamp": "2025-12-19T16:54:42.965825+00:00", "meta": {"OBJECT_NAME": "STARLINK-35872", "OBJECT_ID": "2025-268Z", "EPOCH": "2025-12-19T06:49:44.291424", "MEAN_MOTION": 15.50619765, "ECCENTRICITY": 0.00015868, "INCLINATION": 43.0009, "RA_OF_ASC_NODE": 82.8157, "ARG_OF_PERICENTER": 262.1076, "MEAN_ANOMALY": 97.9604, "EPHEMERIS_TYPE": 0, "CLASSIFICATION_TYPE": "U", "NORAD_CAT_ID": 66580, "ELEMENT_SET_NO": 999, "REV_AT_EPOCH": 564, "BSTAR": 0.0013015349, "MEAN_MOTION_DOT": 0.00076879, "MEAN_MOTION_DDOT": 0}, "tle": {"line1": "1 66580U 25268Z   25353.28454041  .00076879  00000+0  13015-2 0  9992", "line2": "2 66580  43.0009  82.8157 0001586 262.1076  97.9604 15.50619765  5643"}}, "geometry": {"type": "Point", "coordinates": [-93.6077668225712, -5.595400476557793]}}, {"type": "Feature", "properties": {"norad_id": 66581, "name": "STARLINK-35744", "group": "last-30-days", "lat": -6.8861945809704865, "lon": -92.20085944610813, "alt_km": 415.4728841552096, "timestamp": "2025-12-19T16:54:42.965836+00:00", "meta": {"OBJECT_NAME": "STARLINK-35744", "OBJECT_ID": "2025-268AA", "EPOCH": "2025-12-19T06:49:14.702016", "MEAN_MOTION": 15.50621305, "ECCENTRICITY": 0.00015897, "INCLINATION": 42.999, "RA_OF_ASC_NODE": 82.8126, "ARG_OF_PERICENTER": 282.2077, "MEAN_ANOMALY": 77.8605, "EPHEMERIS_TYPE": 0, "CLASSIFICATION_TYPE": "U", "NORAD_CAT_ID": 66581, "ELEMENT_SET_NO": 999, "REV_AT_EPOCH": 564, "BSTAR": 0.001053944, "MEAN_MOTION_DOT": 0.00062074, "MEAN_MOTION_DDOT": 0}, "tle": {"line1": "1 66581U 25268AA  25353.28419794  .00062074  00000+0  10539-2 0  9999", "line2": "2 66581  42.9990  82.8126 0001589 282.2077  77.8605 15.50621305  5645"}}, "geometry": {"type": "Point", "coordinates": [-92.20085944610813, -6.8861945809704865]}}, {"type": "Feature", "properties": {"norad_id": 66582, "name": "STARLINK-35746", "group": "last-30-days", "lat": -8.161521161915008, "lon": -90.80073807365847, "alt_km": 415.2753592314848, "timestamp": "2025-12-19T16:54:42.965848+00:00", "meta": {"OBJECT_NAME": "STARLINK-35746", "OBJECT_ID": "2025-268AB", "EPOCH": "2025-12-19T06:48:44.947584", "MEAN_MOTION": 15.50605467, "ECCENTRICITY": 0.0001828, "INCLINATION": 43.0007, "RA_OF_ASC_NODE": 82.8083, "ARG_OF_PERICENTER": 264.1583, "MEAN_ANOMALY": 95.9068, "EPHEMERIS_TYPE": 0, "CLASSIFICATION_TYPE": "U", "NORAD_CAT_ID": 66582, "ELEMENT_SET_NO": 999, "REV_AT_EPOCH": 564, "BSTAR": 0.00090938225, "MEAN_MOTION_DOT": 0.00053424, "MEAN_MOTION_DDOT": 0}, "tle": {"line1": "1 66582U 25268AB  25353.28385356  .00053424  00000+0  90938-3 0  9997", "line2": "2 66582  43.0007  82.8083 0001828 264.1583  95.9068 15.50605467  5641"}}, "geometry": {"type": "Point", "coordinates": [-90.80073807365847, -8.161521161915008]}}, {"type": "Feature", "properties": {"norad_id": 66583, "name": "STARLINK-35941", "group": "last-30-days", "lat": -9.469569978617093, "lon": -89.34567832716861, "alt_km": 415.6030240178043, "timestamp": "2025-12-19T16:54:42.965860+00:00", "meta": {"OBJECT_NAME": "STARLINK-35941", "OBJECT_ID": "2025-268AC", "EPOCH": "2025-12-19T06:48:15.499008", "MEAN_MOTION": 15.50622928, "ECCENTRICITY": 0.00015092, "INCLINATION": 42.999, "RA_OF_ASC_NODE": 82.807, "ARG_OF_PERICENTER": 278.0485, "MEAN_ANOMALY": 82.0204, "EPHEMERIS_TYPE": 0, "CLASSIFICATION_TYPE": "U", "NORAD_CAT_ID": 66583, "ELEMENT_SET_NO": 999, "REV_AT_EPOCH": 564, "BSTAR": 0.0011280708, "MEAN_MOTION_DOT": 0.00066506, "MEAN_MOTION_DDOT": 0}, "tle": {"line1": "1 66583U 25268AC  25353.28351272  .00066506  00000+0  11281-2 0  9996", "line2": "2 66583  42.9990  82.8070 0001509 278.0485  82.0204 15.50622928  5648"}}, "geometry": {"type": "Point", "coordinates": [-89.34567832716861, -9.469569978617093]}}, {"type": "Feature", "properties": {"norad_id": 66584, "name": "STARLINK-35939", "group": "last-30-days", "lat": -11.075422765378697, "lon": -87.5424436288372, "alt_km": 415.4007953960627, "timestamp": "2025-12-19T16:54:42.965873+00:00", "meta": {"OBJECT_NAME": "STARLINK-35939", "OBJECT_ID": "2025-268AD", "EPOCH": "2025-12-18T13:47:25.569600", "MEAN_MOTION": 15.50609081, "ECCENTRICITY": 0.00021101, "INCLINATION": 42.9997, "RA_OF_ASC_NODE": 86.9444, "ARG_OF_PERICENTER": 279.7649, "MEAN_ANOMALY": 80.2973, "EPHEMERIS_TYPE": 0, "CLASSIFICATION_TYPE": "U", "NORAD_CAT_ID": 66584, "ELEMENT_SET_NO": 999, "REV_AT_EPOCH": 553, "BSTAR": 0.0016835386, "MEAN_MOTION_DOT": 0.00099801, "MEAN_MOTION_DDOT": 0}, "tle": {"line1": "1 66584U 25268AD  25352.57460150  .00099801  00000+0  16835-2 0  9998", "line2": "2 66584  42.9997  86.9444 0002110 279.7649  80.2973 15.50609081  5531"}}, "geometry": {"type": "Point", "coordinates": [-87.5424436288372, -11.075422765378697]}}, {"type": "Feature", "properties": {"norad_id": 66585, "name": "STARLINK-35963", "group": "last-30-days", "lat": -12.032357143183791, "lon": -86.44493061362535, "alt_km": 415.3985567742093, "timestamp": "2025-12-19T16:54:42.965883+00:00", "meta": {"OBJECT_NAME": "STARLINK-35963", "OBJECT_ID": "2025-268AE", "EPOCH": "2025-12-19T06:47:16.129248", "MEAN_MOTION": 15.50619243, "ECCENTRICITY": 0.00016879, "INCLINATION": 43.0009, "RA_OF_ASC_NODE": 82.8011, "ARG_OF_PERICENTER": 258.021, "MEAN_ANOMALY": 102.0461, "EPHEMERIS_TYPE": 0, "CLASSIFICATION_TYPE": "U", "NORAD_CAT_ID": 66585, "ELEMENT_SET_NO": 999, "REV_AT_EPOCH": 564, "BSTAR": 0.0013398312, "MEAN_MOTION_DOT": 0.00079173, "MEAN_MOTION_DDOT": 0}, "tle": {"line1": "1 66585U 25268AE  25353.28282557  .00079173  00000+0  13398-2 0  9992", "line2": "2 66585  43.0009  82.8011 0001687 258.0210 102.0461 15.50619243  5643"}}, "geometry": {"type": "Point", "coordinates": [-86.44493061362535, -12.032357143183791]}}, {"type": "Feature", "properties": {"norad_id": 66586, "name": "TJS-21", "group": "last-30-days", "lat": 0.8342737858908182, "lon": 162.0156085654088, "alt_km": 8093.668154516104, "timestamp": "2025-12-19T16:54:42.965896+00:00", "meta": {"OBJECT_NAME": "TJS-21", "OBJECT_ID": "2025-269A", "EPOCH": "2025-12-18T16:58:10.473888", "MEAN_MOTION": 2.00580748, "ECCENTRICITY": 0.6806869, "INCLINATION": 63.2733, "RA_OF_ASC_NODE": 161.7218, "ARG_OF_PERICENTER": 269.7428, "MEAN_ANOMALY": 18.6663, "EPHEMERIS_TYPE": 0, "CLASSIFICATION_TYPE": "U", "NORAD_CAT_ID": 66586, "ELEMENT_SET_NO": 999, "REV_AT_EPOCH": 55, "BSTAR": -0.059507049, "MEAN_MOTION_DOT": 1.084e-05, "MEAN_MOTION_DDOT": 0}, "tle": {"line1": "1 66586U 25269A   25352.70706567  .00001084  00000+0 -59507-1 0  9990", "line2": "2 66586  63.2733 161.7218 6806869 269.7428  18.6663  2.00580748   558"}}, "geometry": {"type": "Point", "coordinates": [162.0156085654088, 0.8342737858908182]}}, {"type": "Feature", "properties": {"norad_id": 66587, "name": "CZ-3B R/B", "group": "last-30-days", "lat": 17.602211671066453, "lon": -177.32975073322783, "alt_km": 28072.923890899536, "timestamp": "2025-12-19T16:54:42.965910+00:00", "meta": {"OBJECT_NAME": "CZ-3B R/B", "OBJECT_ID": "2025-269B", "EPOCH": "2025-12-18T04:21:45.908640", "MEAN_MOTION": 2.0405465, "ECCENTRICITY": 0.75166459, "INCLINATION": 51.3412, "RA_OF_ASC_NODE": 168.3764, "ARG_OF_PERICENTER": 229.6756, "MEAN_ANOMALY": 36.1575, "EPHEMERIS_TYPE": 0, "CLASSIFICATION_TYPE": "U", "NORAD_CAT_ID": 66587, "ELEMENT_SET_NO": 999, "REV_AT_EPOCH": 56, "BSTAR": 0.00058948144, "MEAN_MOTION_DOT": 0.0008861, "MEAN_MOTION_DDOT": -1.447425e-06}, "tle": {"line1": "1 66587U 25269B   25352.18178135  .00088610 -14474-5  58948-3 0  9993", "line2": "2 66587  51.3412 168.3764 7516645 229.6756  36.1575  2.04054650   560"}}, "geometry": {"type": "Point", "coordinates": [-177.32975073322783, 17.602211671066453]}}, {"type": "Feature", "properties": {"norad_id": 66588, "name": "STARLINK-36076", "group": "last-30-days", "lat": 7.26380127784874, "lon": -35.21868176360291, "alt_km": 442.83182447267336, "timestamp": "2025-12-19T16:54:42.965922+00:00", "meta": {"OBJECT_NAME": "STARLINK-36076", "OBJECT_ID": "2025-270A", "EPOCH": "2025-12-19T03:44:02.582016", "MEAN_MOTION": 15.40724082, "ECCENTRICITY": 0.0001575, "INCLINATION": 42.9984, "RA_OF_ASC_NODE": 155.8086, "ARG_OF_PERICENTER": 265.971, "MEAN_ANOMALY": 94.0966, "EPHEMERIS_TYPE": 0, "CLASSIFICATION_TYPE": "U", "NORAD_CAT_ID": 66588, "ELEMENT_SET_NO": 999, "REV_AT_EPOCH": 533, "BSTAR": 0.00080329053, "MEAN_MOTION_DOT": 0.00033426, "MEAN_MOTION_DDOT": 0}, "tle": {"line1": "1 66588U 25270A   25353.15558544  .00033426  00000+0  80329-3 0  9996", "line2": "2 66588  42.9984 155.8086 0001575 265.9710  94.0966 15.40724082  5330"}}, "geometry": {"type": "Point", "coordinates": [-35.21868176360291, 7.26380127784874]}}, {"type": "Feature", "properties": {"norad_id": 66589, "name": "STARLINK-35447", "group": "last-30-days", "lat": -42.96445699264672, "lon": 60.572760124412724, "alt_km": 446.45965438781514, "timestamp": "2025-12-19T16:54:42.965932+00:00", "meta": {"OBJECT_NAME": "STARLINK-35447", "OBJECT_ID": "2025-270B", "EPOCH": "2025-12-19T08:00:01.999872", "MEAN_MOTION": 15.40670884, "ECCENTRICITY": 0.0001449, "INCLINATION": 42.9993, "RA_OF_ASC_NODE": 154.5426, "ARG_OF_PERICENTER": 287.091, "MEAN_ANOMALY": 79.6741, "EPHEMERIS_TYPE": 0, "CLASSIFICATION_TYPE": "U", "NORAD_CAT_ID": 66589, "ELEMENT_SET_NO": 999, "REV_AT_EPOCH": 556, "BSTAR": 0.0013060454, "MEAN_MOTION_DOT": 0.00054592, "MEAN_MOTION_DDOT": 0}, "tle": {"line1": "1 66589U 25270B   25353.33335648  .00054592  00000+0  13060-2 0  9999", "line2": "2 66589  42.9993 154.5426 0001449 287.0910  79.6741 15.40670884  5567"}}, "geometry": {"type": "Point", "coordinates": [60.572760124412724, -42.96445699264672]}}]}